{"type": "FeatureCollection", "features": [{"type": "Feature", "properties": {"shapeName": "Kaliningrad", "shapeISO": "RU-KGD", "shapeID": "28173009B40138449315491", "shapeGroup": "RUS", "shapeType": "ADM1"}, "geometry": {"type": "MultiPolygon", "coordinates": [[[[19.648615891827397, 54.4532277146658], [19.6708375, 54.4684094], [19.6792644, 54.4698418], [19.68352, 54.4732], [19.7017573, 54.4775598], [19.7039218, 54.4814097], [19.71966, 54.4918973], [19.7247673, 54.494446], [19.7345575, 54.4961033], [19.7334499, 54.4993628], [19.73686, 54.50476], [19.7517718, 54.5136129], [19.7512816, 54.5155565], [19.7597595, 54.5243182], [19.77266, 54.52921], [19.771991, 54.5403394], [19.77865, 54.54272], [19.7818225, 54.5458677], [19.7861624, 54.5466607], [19.7943364, 54.5532104], [19.8069074, 54.55593], [19.8182927, 54.5713574], [19.8261861, 54.5765142], [19.8324983, 54.5856313], [19.8488549, 54.5936835], [19.8530933, 54.6016778], [19.8819317, 54.6101696], [19.8837444, 54.6155194], [19.8759457, 54.6170841], [19.8747134, 54.6191451], [19.8794174, 54.6237514], [19.8873476, 54.6250547], [19.8872153, 54.6332278], [19.8656304, 54.6466992], [19.876954, 54.6390007], [19.8774087, 54.6362219], [19.8485593, 54.6068016], [19.7765256, 54.5502807], [19.6834669, 54.4856082], [19.638928178393584, 54.45844802669202], [19.648615891827397, 54.4532277146658]]], [[[20.9537024, 55.2808334], [20.92944, 55.25639], [20.87711, 55.2146], [20.85255, 55.19228], [20.77677, 55.13583], [20.72522, 55.08989], [20.68016, 55.05776], [20.5905936, 55.0057125], [20.54931, 54.98768], [20.49989, 54.96931], [20.4466866, 54.9529862], [20.3982672, 54.9420409], [20.3717912, 54.9377486], [20.35393, 54.93724], [20.2992213, 54.9434159], [20.2726402, 54.9604005], [20.2708051, 54.9631718], [20.2361872, 54.9556385], [20.2197423, 54.9547954], [20.2162589, 54.9555502], [20.2141221, 54.9583489], [20.2162023, 54.9553353], [20.2123988, 54.954758], [20.2084429, 54.9586812], [20.2160159, 54.9603265], [20.1942839, 54.9563712], [20.1580274, 54.9471132], [20.1223128, 54.9439384], [20.0927894, 54.9479488], [20.0817809, 54.9472482], [20.0706504, 54.9483569], [20.0367396, 54.9463909], [20.0212172, 54.9477428], [20.0160072, 54.949004], [20.0120674, 54.952099], [20.0043815, 54.9535702], [19.9924533, 54.9607661], [19.9772554, 54.9604594], [19.9607553, 54.938516], [19.9460059, 54.9275946], [19.9349471, 54.9111815], [19.9314362, 54.901593], [19.930429, 54.883064], [19.932831, 54.8608266], [19.9481366, 54.8356204], [19.95237, 54.82034], [19.9592712, 54.8106164], [19.9637128, 54.7950912], [19.9636195, 54.7780161], [19.95755, 54.7561853], [19.94078, 54.72086], [19.9199849, 54.6911124], [19.8805457, 54.6500652], [19.874441, 54.6471848], [19.8686837, 54.6491964], [19.8895586, 54.6385375], [19.8946844, 54.6380872], [19.8957471, 54.6405042], [19.8911491, 54.6419064], [19.8964238, 54.640795], [19.9075923, 54.6489941], [19.9135061, 54.648033], [19.9110827, 54.6466895], [19.9168854, 54.6453827], [19.9115837, 54.6461465], [19.9106771, 54.6448304], [19.9034105, 54.6443078], [19.9007516, 54.6355934], [19.9030067, 54.6358435], [19.9025739, 54.6347123], [19.9038208, 54.6361255], [19.9074644, 54.6361248], [19.9113717, 54.6425928], [19.9126669, 54.6408383], [19.9198957, 54.6430117], [19.920975, 54.6417983], [19.9150172, 54.6397603], [19.922058, 54.6406195], [19.9231188, 54.6393489], [19.9087077, 54.6348497], [19.9229884, 54.6370767], [19.9192328, 54.6335921], [19.9460361, 54.635548], [19.9457647, 54.6369116], [19.9515062, 54.6373629], [19.9494892, 54.6387165], [19.9519353, 54.6388407], [19.9521499, 54.6374126], [19.9544459, 54.6402191], [19.9638444, 54.6396727], [19.9613, 54.64496], [19.95348, 54.64822], [19.9482194, 54.6472301], [19.94465, 54.6484], [19.94073, 54.65503], [19.9392625, 54.6646479], [19.9482661, 54.6903186], [19.9449616, 54.6988506], [19.946764, 54.7030663], [19.9586516, 54.7084717], [19.97542, 54.72461], [19.9959702, 54.7270317], [20.0040805, 54.7261099], [20.0065063, 54.7238337], [20.0067826, 54.7263669], [20.0071549, 54.7247805], [20.009, 54.72668], [20.02184, 54.72653], [20.0434307, 54.7237571], [20.05534, 54.71335], [20.0626752, 54.6942959], [20.0588164, 54.6898667], [20.0608371, 54.6901123], [20.059449, 54.6855885], [20.0620434, 54.6726887], [20.0741785, 54.6620207], [20.0877976, 54.657179], [20.082361, 54.6520382], [20.1036235, 54.6533908], [20.1177926, 54.6573722], [20.1187898, 54.6651767], [20.1205882, 54.6655447], [20.1211179, 54.662212], [20.1263774, 54.6625124], [20.1299639, 54.6655318], [20.1284364, 54.6665625], [20.1310365, 54.6659283], [20.1517493, 54.6802102], [20.1582346, 54.6809591], [20.1652799, 54.6868518], [20.17619, 54.688027], [20.1782963, 54.6902167], [20.1739388, 54.6946894], [20.178663, 54.6917788], [20.1941151, 54.6910359], [20.1948697, 54.6929656], [20.2196796, 54.6877759], [20.22477, 54.6906], [20.2335383, 54.690462], [20.2440483, 54.6931691], [20.2494206, 54.6863638], [20.2574092, 54.6880904], [20.2665593, 54.6876909], [20.267242, 54.6894489], [20.2740413, 54.6922264], [20.2755553, 54.6881245], [20.278665, 54.6872479], [20.2767323, 54.6831635], [20.2872423, 54.6319655], [20.27629, 54.62804], [20.26319, 54.62002], [20.25175, 54.6179], [20.24914, 54.6161], [20.2428057, 54.6166359], [20.2463529, 54.6123565], [20.2418465, 54.6119867], [20.2458981, 54.6128298], [20.2433585, 54.6150808], [20.23379, 54.61152], [20.20998, 54.60957], [20.15949, 54.59732], [20.15163, 54.59342], [20.15037, 54.5906], [20.14772, 54.59058], [20.1421541, 54.58131], [20.12869, 54.57277], [20.12122, 54.57143], [20.12257, 54.57042], [20.1112976, 54.5667163], [20.10992, 54.56418], [20.0929, 54.55663], [20.09162, 54.55457], [20.07272, 54.55264], [20.07231, 54.55109], [20.06749, 54.54952], [20.06003, 54.54843], [20.05559, 54.54994], [20.05113, 54.55246], [20.04601, 54.56395], [20.02106, 54.57515], [20.0094245, 54.5770319], [19.9933163, 54.5768548], [19.9806678, 54.5698492], [19.9730978, 54.555811], [19.9662109, 54.5525377], [19.9651203, 54.5387782], [19.95998, 54.52379], [19.9522822, 54.5109297], [19.9474538, 54.5077813], [19.94877, 54.50577], [19.94484, 54.50471], [19.94665, 54.50293], [19.94407, 54.5006], [19.94056, 54.4998], [19.9358829, 54.4954912], [19.9282036, 54.4951195], [19.9288876, 54.4929796], [19.9280443, 54.4948007], [19.9243978, 54.493736], [19.9260808, 54.495349], [19.9239769, 54.4939473], [19.9263114, 54.4919728], [19.92409, 54.49044], [19.91923, 54.49091], [19.91622, 54.48844], [19.90568, 54.48758], [19.90091, 54.48498], [19.8671389, 54.4826604], [19.85062, 54.47426], [19.8309036, 54.4692876], [19.8143794, 54.4588112], [19.8038606, 54.4424045], [20.0073654, 54.4247399], [20.0694961, 54.4221139], [20.2210751, 54.4087528], [20.3324287, 54.4010536], [20.3613259, 54.3958319], [20.4041677, 54.3927909], [20.438368, 54.3878679], [20.4866393, 54.3840941], [20.4894416, 54.3829103], [20.5053679, 54.3825844], [20.5151973, 54.3805782], [20.5381865, 54.3808245], [20.5844093, 54.3778998], [20.6168789, 54.3725557], [20.6310833, 54.3663285], [20.6481065, 54.37118], [20.6927699, 54.3721197], [20.7172991, 54.3691494], [20.7408165, 54.3692867], [20.8184429, 54.3600101], [20.8483853, 54.3606923], [20.8575762, 54.3592237], [20.9259386, 54.3564291], [20.9513452, 54.357132], [20.9579769, 54.3546916], [21.0071056, 54.3535633], [21.0380813, 54.3485955], [21.0988294, 54.3467434], [21.143218, 54.3425504], [21.1641161, 54.3372958], [21.1967602, 54.3377825], [21.2613321, 54.3291379], [21.2743252, 54.3283928], [21.2906056, 54.3323316], [21.3029135, 54.3335369], [21.3238986, 54.3292988], [21.3794991, 54.3310432], [21.3935446, 54.3279097], [21.4369797, 54.3262509], [21.4461125, 54.3182154], [21.495703, 54.3240149], [21.5304787, 54.3254776], [21.5528168, 54.3252111], [21.5533025, 54.3228654], [21.5703702, 54.3220342], [21.573604, 54.325369], [21.5792591, 54.3256187], [21.6353514, 54.3274105], [21.6770855, 54.326863], [21.7967046, 54.3317862], [21.8509029, 54.3312801], [21.9135776, 54.3337045], [21.9698795, 54.3326815], [22.0099609, 54.336209], [22.0623592, 54.3356497], [22.0970723, 54.3374113], [22.1527864, 54.3365712], [22.1759321, 54.338103], [22.1794812, 54.3372034], [22.1815296, 54.3384646], [22.2256825, 54.3437819], [22.2292781, 54.3405033], [22.2319987, 54.340287], [22.2388078, 54.341717], [22.318666, 54.3405375], [22.3197675, 54.3429376], [22.3292505, 54.3445398], [22.3307592, 54.3433085], [22.3825968, 54.3446848], [22.421774, 54.3484499], [22.434467, 54.346285], [22.4469998, 54.3486815], [22.528228, 54.3491598], [22.5713678, 54.3538721], [22.5963633, 54.3535773], [22.6165189, 54.3556748], [22.6415445, 54.3537698], [22.6605363, 54.3555842], [22.680602, 54.3602413], [22.7919888, 54.3633414], [22.7893439, 54.3687224], [22.7671737, 54.3845795], [22.736439, 54.4429167], [22.7010873, 54.4535972], [22.7041185, 54.4669096], [22.6966344, 54.4896374], [22.6959844, 54.5050656], [22.6991922, 54.50738], [22.6942895, 54.5094638], [22.6895264, 54.5165462], [22.684442, 54.5184943], [22.681607, 54.5246382], [22.6838237, 54.529401], [22.6805898, 54.533372], [22.6856675, 54.5392204], [22.6918671, 54.5421841], [22.6941839, 54.5502577], [22.703007, 54.553934], [22.7066484, 54.5600916], [22.7137585, 54.5636592], [22.7033373, 54.5670738], [22.6996444, 54.5761031], [22.6869968, 54.5796815], [22.6837604, 54.5828578], [22.6838586, 54.585972], [22.6858622, 54.5907299], [22.6976969, 54.5945569], [22.7055471, 54.6028212], [22.7200327, 54.6066158], [22.7222361, 54.6148023], [22.7205049, 54.6166013], [22.7257819, 54.618946], [22.7265965, 54.6229774], [22.7453818, 54.6267096], [22.7448961, 54.6285465], [22.7487738, 54.6308947], [22.7503422, 54.6387348], [22.7416839, 54.6426511], [22.7458601, 54.6471318], [22.7546926, 54.647611], [22.7572045, 54.6526151], [22.7508627, 54.6565045], [22.7420321, 54.6579158], [22.7373747, 54.6616817], [22.7369221, 54.6645691], [22.7307703, 54.6664372], [22.7291711, 54.6686755], [22.738764, 54.6705171], [22.7375036, 54.672561], [22.7404927, 54.6740434], [22.737348, 54.6761957], [22.7377209, 54.6796864], [22.733784, 54.6803098], [22.7287189, 54.6788602], [22.7293141, 54.6818223], [22.7268754, 54.6821115], [22.7233379, 54.686016], [22.7266163, 54.6873227], [22.724411, 54.6899763], [22.7296156, 54.692394], [22.7292509, 54.6979957], [22.7315651, 54.6973426], [22.7320518, 54.6988716], [22.7340723, 54.6986086], [22.7333803, 54.7001706], [22.7360996, 54.6978435], [22.7396631, 54.6990178], [22.7369937, 54.7030058], [22.7418566, 54.7030533], [22.7451025, 54.7060345], [22.748963, 54.7064386], [22.748372, 54.7120259], [22.7431712, 54.7121664], [22.7428207, 54.7157553], [22.7402751, 54.7152898], [22.7410238, 54.7169713], [22.7387334, 54.7168932], [22.7402426, 54.7180709], [22.7386109, 54.7189546], [22.7458832, 54.7255151], [22.7415954, 54.7280593], [22.7450262, 54.7301923], [22.743582, 54.7314983], [22.748757, 54.7319368], [22.7498173, 54.7305702], [22.750866, 54.7325727], [22.7542754, 54.7321896], [22.7586541, 54.7358586], [22.7606067, 54.7351027], [22.7639095, 54.736305], [22.7629717, 54.7377044], [22.7668921, 54.7379598], [22.773954, 54.7481301], [22.7768452, 54.7487222], [22.7740342, 54.7511817], [22.778035, 54.7521125], [22.778285, 54.7504461], [22.7825368, 54.7490754], [22.7905211, 54.7543705], [22.7910459, 54.7523726], [22.7924949, 54.7537574], [22.7934784, 54.7526135], [22.794212, 54.753632], [22.7999618, 54.7533319], [22.7967679, 54.7515959], [22.8012386, 54.7502519], [22.7995853, 54.7475358], [22.8042873, 54.7477736], [22.8037392, 54.7491459], [22.8071478, 54.7480062], [22.8053177, 54.7493101], [22.8063297, 54.7525734], [22.808266, 54.7533721], [22.8119465, 54.7518053], [22.8157483, 54.7554627], [22.8139362, 54.7567927], [22.8050067, 54.7543649], [22.8080313, 54.7598022], [22.8127509, 54.7626671], [22.8130328, 54.7665189], [22.8213063, 54.7667707], [22.8264328, 54.7640207], [22.8312359, 54.769129], [22.8404071, 54.7686431], [22.8440987, 54.7668468], [22.8495886, 54.7714067], [22.8485646, 54.7746085], [22.8595144, 54.7775076], [22.848327, 54.7856667], [22.8546066, 54.7898443], [22.8608679, 54.7883114], [22.8720302, 54.7885848], [22.8779086, 54.790805], [22.877945, 54.7932514], [22.8718124, 54.7973485], [22.8749453, 54.8004241], [22.8733349, 54.8054362], [22.8781178, 54.8115285], [22.8854091, 54.8113436], [22.886659, 54.8140818], [22.8853776, 54.8155669], [22.8803225, 54.8158994], [22.8781113, 54.8189013], [22.8709874, 54.8202099], [22.8726257, 54.8232547], [22.8780695, 54.8230699], [22.8800139, 54.8254754], [22.8764655, 54.8338208], [22.8636853, 54.8363993], [22.8587544, 54.838788], [22.8598026, 54.8430306], [22.8642733, 54.8460767], [22.864843, 54.8492506], [22.8691088, 54.8504668], [22.8690841, 54.8531529], [22.8645426, 54.854067], [22.8592586, 54.8581758], [22.8480974, 54.8613777], [22.8436256, 54.8611912], [22.8396881, 54.8642311], [22.8436975, 54.8752266], [22.8553168, 54.886332], [22.8517592, 54.8900513], [22.8474088, 54.8902355], [22.8463134, 54.897382], [22.8413706, 54.8991244], [22.8362212, 54.8986766], [22.8358993, 54.9038523], [22.8259928, 54.9064729], [22.8204005, 54.9119829], [22.8097236, 54.9099296], [22.7996108, 54.902548], [22.7932571, 54.9037185], [22.7878212, 54.9085283], [22.7887863, 54.9197599], [22.7830164, 54.9248335], [22.7686657, 54.9234026], [22.7618697, 54.9169252], [22.7544855, 54.9186055], [22.749141, 54.9230322], [22.7493738, 54.924978], [22.7549267, 54.9293434], [22.7667773, 54.9327089], [22.7663508, 54.9354772], [22.7627025, 54.9376509], [22.7427369, 54.9390508], [22.7404325, 54.9447786], [22.7337348, 54.9471782], [22.7279156, 54.954756], [22.7296314, 54.9597138], [22.726138, 54.9631794], [22.7135531, 54.9677947], [22.7071681, 54.9735415], [22.7012067, 54.973596], [22.6953639, 54.9706048], [22.690025, 54.9716031], [22.6876775, 54.9807084], [22.6780717, 54.9875007], [22.6708386, 54.9881545], [22.6593687, 54.9818774], [22.6647634, 54.9739545], [22.663853, 54.9707778], [22.6683238, 54.9692085], [22.6638088, 54.9645672], [22.6606648, 54.9645225], [22.6573516, 54.9678109], [22.6528342, 54.9650356], [22.6440633, 54.9698957], [22.6416299, 54.9723675], [22.643102, 54.9840125], [22.636244, 54.9850762], [22.6351859, 54.9893822], [22.626557, 54.9955747], [22.6283226, 54.9976927], [22.6250488, 55.0041488], [22.614946, 55.0097175], [22.6146091, 55.012391], [22.6034903, 55.0133192], [22.6019713, 55.0201497], [22.5960455, 55.0255036], [22.5944694, 55.0339401], [22.5972095, 55.0370572], [22.5954007, 55.0447407], [22.5974381, 55.0459905], [22.5903921, 55.0540988], [22.5918802, 55.0601341], [22.5892361, 55.070243], [22.5738208, 55.0696988], [22.545168, 55.0652671], [22.4912359, 55.047693], [22.4705972, 55.0445261], [22.4570933, 55.0450476], [22.4254307, 55.0539613], [22.3945804, 55.0532967], [22.3483005, 55.0616275], [22.3156796, 55.0618733], [22.2913595, 55.064764], [22.2527908, 55.0615324], [22.2180995, 55.0603453], [22.1856966, 55.0536778], [22.1585655, 55.0556385], [22.13367, 55.0464204], [22.125607, 55.0315619], [22.1199271, 55.0275374], [22.1002438, 55.0241491], [22.072708, 55.0255641], [22.0476528, 55.0339385], [22.0369134, 55.042544], [22.0308356, 55.0553554], [22.0396811, 55.0689881], [22.040485, 55.0767844], [22.039383, 55.0805798], [22.0324081, 55.084098], [22.0121424, 55.0869044], [21.9977573, 55.0867348], [21.9835396, 55.0839074], [21.9655396, 55.0738781], [21.9163905, 55.0809924], [21.8794223, 55.0936312], [21.8485167, 55.097456], [21.8162719, 55.1186837], [21.8051351, 55.1201492], [21.7779088, 55.1194201], [21.7608536, 55.1231766], [21.7431023, 55.1296753], [21.7225988, 55.1330531], [21.717261, 55.136778], [21.7163535, 55.1452519], [21.7098415, 55.1512874], [21.685949, 55.16367], [21.6699666, 55.1679028], [21.6491949, 55.1808113], [21.613566, 55.1870748], [21.5946378, 55.1879109], [21.5773059, 55.1965146], [21.570132, 55.1981279], [21.5400739, 55.1962191], [21.5149497, 55.1852588], [21.5015124, 55.1868198], [21.4949121, 55.1910033], [21.4880756, 55.201002], [21.4493709, 55.2214947], [21.4366357, 55.2375908], [21.4320699, 55.2511988], [21.4165114, 55.2627033], [21.4068485, 55.2778369], [21.3851461, 55.2932692], [21.3805534, 55.2935086], [21.3771193, 55.2880214], [21.3818392, 55.2872161], [21.3805381, 55.2865334], [21.3605108, 55.2846858], [21.3463753, 55.2777886], [21.3363, 55.27579], [21.32682, 55.26826], [21.3233058, 55.2676025], [21.32367, 55.26596], [21.3084286, 55.2605768], [21.30249, 55.2545], [21.29529, 55.25106], [21.2859661, 55.2494312], [21.2712057, 55.2440891], [21.27593, 55.23945], [21.2804448, 55.2413576], [21.2843476, 55.2403637], [21.28867, 55.2343], [21.28708, 55.23123], [21.28927, 55.22405], [21.28432, 55.22099], [21.28159, 55.21511], [21.28199, 55.20896], [21.2757, 55.2054], [21.27388, 55.20181], [21.26089, 55.20131], [21.25863, 55.19749], [21.26621, 55.19312], [21.27964, 55.19283], [21.2823, 55.18949], [21.28766, 55.18718], [21.28096, 55.1895], [21.27919, 55.19232], [21.26397, 55.19312], [21.25461, 55.19954], [21.25148, 55.19904], [21.25191, 55.19648], [21.24744, 55.19828], [21.2443, 55.19828], [21.2443, 55.19675], [21.23759, 55.19791], [21.23265, 55.19754], [21.22638, 55.19473], [21.23202, 55.20215], [21.22511, 55.20882], [21.21392, 55.2091], [21.20943, 55.20808], [21.20628, 55.20501], [21.19374, 55.20439], [21.17915, 55.19712], [21.18084, 55.17304], [21.18436, 55.16023], [21.18771, 55.15895], [21.18724, 55.1551], [21.19035, 55.15049], [21.191, 55.14562], [21.18898, 55.14486], [21.19184, 55.13486], [21.19761, 55.1259], [21.19576, 55.11462], [21.20374, 55.10104], [21.20588, 55.08362], [21.20897, 55.07695], [21.20804, 55.06927], [21.20957, 55.06364], [21.21202, 55.06261], [21.20974, 55.05313], [21.21308, 55.0521], [21.21085, 55.0516], [21.21658, 55.03904], [21.21564, 55.03033], [21.22074, 55.02545], [21.22137, 55.01828], [21.21911, 55.01368], [21.21599, 55.01266], [21.21956, 55.01087], [21.21509, 55.01163], [21.21419, 55.00908], [21.23202, 55.00968], [21.24006, 55.01248], [21.25433, 55.01476], [21.26128, 55.02102], [21.2691, 55.02433], [21.2809349, 55.024525], [21.27133, 55.0242], [21.26329, 55.02153], [21.25611, 55.01463], [21.23023, 55.00866], [21.2133, 55.00781], [21.2126, 55.00447], [21.21905, 55.00215], [21.22526, 54.99727], [21.22857, 54.99163], [21.22899, 54.98728], [21.22631, 54.98472], [21.22876, 54.98485], [21.22919, 54.98331], [21.2403, 54.97881], [21.248, 54.96317], [21.24841, 54.95779], [21.24568, 54.94884], [21.23918, 54.94038], [21.2075171, 54.9192566], [21.1981562, 54.9175824], [21.19148, 54.91832], [21.1790116, 54.9158773], [21.1572235, 54.9160087], [21.1251718, 54.9065235], [21.1009068, 54.9063086], [21.0951729, 54.9028947], [21.0911463, 54.8971787], [21.0904404, 54.8948305], [21.0935845, 54.8926677], [21.08827, 54.89308], [21.0856, 54.89065], [21.0821675, 54.8932635], [21.080508, 54.8918842], [21.0746404, 54.8937334], [21.0710051, 54.8933126], [21.0624102, 54.9005314], [21.0581423, 54.9016464], [21.0477089, 54.8978258], [21.04561, 54.89451], [21.04072, 54.89336], [21.02872, 54.89234], [21.01895, 54.89977], [21.0083514, 54.8929168], [20.99673, 54.89081], [20.9955256, 54.8928792], [20.9863412, 54.8944868], [20.97361, 54.89286], [20.97051, 54.89349], [20.9708518, 54.8948224], [20.9670967, 54.8945892], [20.96073, 54.89695], [20.9513876, 54.8980825], [20.9458461, 54.8969966], [20.93673, 54.90001], [20.92962, 54.89873], [20.926369, 54.9000369], [20.9233706, 54.8991246], [20.9219431, 54.9004483], [20.9169581, 54.8985216], [20.8913104, 54.9068871], [20.8875344, 54.904918], [20.88762, 54.90241], [20.8846199, 54.9031482], [20.8781146, 54.9003719], [20.8690851, 54.8998058], [20.8649713, 54.9028422], [20.8562222, 54.9045627], [20.8549835, 54.9036256], [20.8540904, 54.9067404], [20.8475726, 54.911637], [20.841679, 54.9126451], [20.8409684, 54.9161227], [20.8380151, 54.9159728], [20.8401926, 54.9177003], [20.8367047, 54.9240473], [20.8328126, 54.924156], [20.8337215, 54.9260039], [20.8319695, 54.9257716], [20.8303253, 54.9289854], [20.8278994, 54.9284898], [20.8242202, 54.930325], [20.8210935, 54.9341501], [20.8170195, 54.9354293], [20.8146191, 54.9346308], [20.8128847, 54.9369631], [20.8066714, 54.9366127], [20.8076148, 54.9378007], [20.8058137, 54.9369795], [20.7995622, 54.9401711], [20.792434, 54.9461922], [20.7847435, 54.9456941], [20.7801025, 54.948075], [20.7762525, 54.9462469], [20.7770625, 54.9451741], [20.7709297, 54.943882], [20.7606601, 54.9444239], [20.7556197, 54.940383], [20.747547, 54.9376114], [20.7470483, 54.9355442], [20.7393529, 54.9333607], [20.7115422, 54.9308459], [20.7094838, 54.9326528], [20.70317, 54.93295], [20.6948734, 54.9313148], [20.6941096, 54.9333011], [20.6975552, 54.9337795], [20.6934991, 54.9342156], [20.6924518, 54.93043], [20.6885335, 54.9339378], [20.6811483, 54.9347659], [20.6773582, 54.9375471], [20.6755377, 54.936277], [20.6722806, 54.9372241], [20.66133, 54.93542], [20.66132, 54.93657], [20.65509, 54.93757], [20.64841, 54.93832], [20.64619, 54.93729], [20.64351, 54.93857], [20.64219, 54.93754], [20.63772, 54.93944], [20.62794, 54.93852], [20.62748, 54.94005], [20.62214, 54.94055], [20.60971, 54.93833], [20.60081, 54.93869], [20.59768, 54.94022], [20.5955, 54.93509], [20.59196, 54.93328], [20.5823611, 54.9351063], [20.5809107, 54.9381887], [20.5780026, 54.9336427], [20.5740335, 54.9340641], [20.5695193, 54.9380276], [20.5526319, 54.9404505], [20.5424969, 54.9445542], [20.5345803, 54.9536285], [20.5340123, 54.9518276], [20.528713, 54.9524969], [20.5277633, 54.9555148], [20.5301369, 54.9538331], [20.5324809, 54.9550905], [20.5343762, 54.9540034], [20.5342762, 54.9553803], [20.5281567, 54.9565638], [20.5261, 54.95481], [20.5293609, 54.950303], [20.52053, 54.95594], [20.511703, 54.9539965], [20.51341, 54.95566], [20.5263, 54.95686], [20.5307729, 54.961724], [20.5287285, 54.9583841], [20.5348292, 54.959387], [20.5343384, 54.9649734], [20.5310096, 54.9685653], [20.5331123, 54.9683804], [20.5379632, 54.9777229], [20.54966, 54.9779817], [20.5797612, 54.9844235], [20.6005583, 54.999274], [20.6007989, 55.0022632], [20.6191797, 55.0068793], [20.62077, 55.01482], [20.63385, 55.02279], [20.63826, 55.02845], [20.64491, 55.03192], [20.6596, 55.03517], [20.7067, 55.05808], [20.73422, 55.08016], [20.75646, 55.09354], [20.7611, 55.10097], [20.7947, 55.12613], [20.8255, 55.13502], [20.84871, 55.1444], [20.863705, 55.1532372], [20.8559213, 55.1559939], [20.8553887, 55.1549292], [20.8559305, 55.1566003], [20.8503971, 55.158593], [20.8499499, 55.166087], [20.87476, 55.18207], [20.87807, 55.19155], [20.9004742, 55.2072327], [20.9130991, 55.224356], [20.9254687, 55.2304543], [20.9397742, 55.2350788], [20.9445533, 55.2390167], [20.9455336, 55.2477379], [20.9504789, 55.2520014], [20.9749375, 55.2603743], [20.9981804, 55.2648947], [20.9841275, 55.2714336], [20.9825044, 55.2743383], [20.9843239, 55.2775197], [20.9537024, 55.2808334]]]]}}]}